[{"OBJECT_NAME":"NANOSATC-BR1","OBJECT_ID":"2014-033Q","EPOCH":"2026-03-09T23:35:03.168384","MEAN_MOTION":15.28136801,"ECCENTRICITY":0.00046435,"INCLINATION":98.0845,"RA_OF_ASC_NODE":92.7804,"ARG_OF_PERICENTER":147.6715,"MEAN_ANOMALY":212.4808,"EPHEMERIS_TYPE":0,"CLASSIFICATION_TYPE":"U","NORAD_CAT_ID":40024,"ELEMENT_SET_NO":999,"REV_AT_EPOCH":63881,"BSTAR":0.00074295057,"MEAN_MOTION_DOT":0.00020336,"MEAN_MOTION_DDOT":0},{"OBJECT_NAME":"STARLINK-36036","OBJECT_ID":"2025-270W","EPOCH":"2026-03-09T00:05:29.727456","MEAN_MOTION":15.2758616,"ECCENTRICITY":8.05e-5,"INCLINATION":43.0011,"RA_OF_ASC_NODE":59.8195,"ARG_OF_PERICENTER":74.7687,"MEAN_ANOMALY":285.3254,"EPHEMERIS_TYPE":0,"CLASSIFICATION_TYPE":"U","NORAD_CAT_ID":66608,"ELEMENT_SET_NO":999,"REV_AT_EPOCH":1744,"BSTAR":0.00096854664,"MEAN_MOTION_DOT":0.00026491,"MEAN_MOTION_DDOT":0}]
