NANOSATC-BR1            
1 40024U 14033Q   26068.98267556  .00020336  00000+0  74295-3 0  9994
2 40024  98.0845  92.7804 0004644 147.6715 212.4808 15.28136801638811
STARLINK-36036          
1 66608U 25270W   26068.00381629  .00026491  00000+0  96855-3 0  9990
2 66608  43.0011  59.8195 0000805  74.7687 285.3254 15.27586160 17442
